SL-14 R/B               
1 16792U 86046B   25361.93778572  .00000738  00000+0  82185-4 0  9999
2 16792  82.4819 147.9609 0024579 104.3994 255.9952 14.85502065115754
SL-14 R/B               
1 16882U 86055B   25361.94569760  .00000632  00000+0  70171-4 0  9992
2 16882  82.5192 194.0839 0018225 205.6376 269.9383 14.85545897108718
AJISAI (EGS)            
1 16908U 86061A   25361.91538999 -.00000094  00000+0  24958-4 0  9990
2 16908  50.0112 314.0535 0011315 103.9905 299.8863 12.44514428459068
COSMOS 1812             
1 17295U 87003A   25361.83211513  .00134091  00000+0  75622-3 0  9995
2 17295  82.4866 275.6431 0005982  65.1357 295.0530 15.78750490133039
SL-14 R/B               
1 17567U 87024B   25361.92988761  .00000782  00000+0  86356-4 0  9992
2 17567  82.5280 160.1846 0019316 135.1814 225.0967 14.86041090 77471
COSMOS 1833             
1 17589U 87027A   25361.72546504  .00000313  00000+0  19295-3 0  9999
2 17589  70.9168 117.2756 0023217 310.8388  49.0719 14.13029936   152
SL-16 R/B               
1 17590U 87027B   25361.62531321 -.00000165  00000+0 -58038-4 0  9997
2 17590  71.0037  68.3524 0007172 244.1688 115.8696 14.17156409  5133
SL-14 R/B               
1 17912U 87038B   25361.75319324  .00000641  00000+0  71584-4 0  9996
2 17912  82.5009   4.5583 0020440  45.9062 314.3832 14.85275798 68551
COSMOS 1844             
1 17973U 87041A   25361.90733752  .00000358  00000+0  21102-3 0  9994
2 17973  70.8970 185.5798 0029377 133.1057 227.2530 14.14533683993438
SL-14 R/B               
1 18153U 87055B   25361.87715473  .00000605  00000+0  67106-4 0  9996
2 18153  82.4989  56.7218 0019244 249.4819 110.4332 14.85536984 59276
COSMOS 1867             
1 18187U 87060A   25361.76298830  .00000033  00000+0  49947-4 0  9998
2 18187  65.0093 148.1311 0013687 272.5720  87.3797 14.31488655  9644
SL-14 R/B               
1 18749U 88001B   25361.86776979  .00000614  00000+0  68191-4 0  9991
2 18749  82.5132 262.9195 0019495 113.7642 246.5622 14.85439842 31366
