CCSDS_OMM_VERS = 2.0
CREATION_DATE  = 
ORIGINATOR     = 

OBJECT_NAME    = SL-14 R/B
OBJECT_ID      = 1986-046B
CENTER_NAME    = EARTH
REF_FRAME      = TEME
TIME_SYSTEM    = UTC
MEAN_ELEMENT_THEORY = SGP/SGP4

EPOCH          = 2025-12-27T22:30:24.686208
MEAN_MOTION    = 14.85502065
ECCENTRICITY   = .0024579
INCLINATION    = 82.4819
RA_OF_ASC_NODE = 147.9609
ARG_OF_PERICENTER = 104.3994
MEAN_ANOMALY   = 255.9952

EPHEMERIS_TYPE = 0
CLASSIFICATION_TYPE = U
NORAD_CAT_ID   = 16792
ELEMENT_SET_NO = 999
REV_AT_EPOCH   = 11575
BSTAR          = .82185145E-4
MEAN_MOTION_DOT = .738E-5
MEAN_MOTION_DDOT = 0

CCSDS_OMM_VERS = 2.0
CREATION_DATE  = 
ORIGINATOR     = 

OBJECT_NAME    = SL-14 R/B
OBJECT_ID      = 1986-055B
CENTER_NAME    = EARTH
REF_FRAME      = TEME
TIME_SYSTEM    = UTC
MEAN_ELEMENT_THEORY = SGP/SGP4

EPOCH          = 2025-12-27T22:41:48.272640
MEAN_MOTION    = 14.85545897
ECCENTRICITY   = .00182259
INCLINATION    = 82.5192
RA_OF_ASC_NODE = 194.0839
ARG_OF_PERICENTER = 205.6376
MEAN_ANOMALY   = 269.9383

EPHEMERIS_TYPE = 0
CLASSIFICATION_TYPE = U
NORAD_CAT_ID   = 16882
ELEMENT_SET_NO = 999
REV_AT_EPOCH   = 10871
BSTAR          = .7017114E-4
MEAN_MOTION_DOT = .632E-5
MEAN_MOTION_DDOT = 0

CCSDS_OMM_VERS = 2.0
CREATION_DATE  = 
ORIGINATOR     = 

OBJECT_NAME    = AJISAI (EGS)
OBJECT_ID      = 1986-061A
CENTER_NAME    = EARTH
REF_FRAME      = TEME
TIME_SYSTEM    = UTC
MEAN_ELEMENT_THEORY = SGP/SGP4

EPOCH          = 2025-12-27T21:58:09.695136
MEAN_MOTION    = 12.44514428
ECCENTRICITY   = .00113156
INCLINATION    = 50.0112
RA_OF_ASC_NODE = 314.0535
ARG_OF_PERICENTER = 103.9905
MEAN_ANOMALY   = 299.8863

EPHEMERIS_TYPE = 0
CLASSIFICATION_TYPE = U
NORAD_CAT_ID   = 16908
ELEMENT_SET_NO = 999
REV_AT_EPOCH   = 45906
BSTAR          = .24957715E-4
MEAN_MOTION_DOT = -.94E-6
MEAN_MOTION_DDOT = 0

CCSDS_OMM_VERS = 2.0
CREATION_DATE  = 
ORIGINATOR     = 

OBJECT_NAME    = COSMOS 1812
OBJECT_ID      = 1987-003A
CENTER_NAME    = EARTH
REF_FRAME      = TEME
TIME_SYSTEM    = UTC
MEAN_ELEMENT_THEORY = SGP/SGP4

EPOCH          = 2025-12-27T19:58:14.747232
MEAN_MOTION    = 15.78750490
ECCENTRICITY   = .00059823
INCLINATION    = 82.4866
RA_OF_ASC_NODE = 275.6431
ARG_OF_PERICENTER = 65.1357
MEAN_ANOMALY   = 295.0530

EPHEMERIS_TYPE = 0
CLASSIFICATION_TYPE = U
NORAD_CAT_ID   = 17295
ELEMENT_SET_NO = 999
REV_AT_EPOCH   = 13303
BSTAR          = .75621534E-3
MEAN_MOTION_DOT = .134091E-2
MEAN_MOTION_DDOT = 0

CCSDS_OMM_VERS = 2.0
CREATION_DATE  = 
ORIGINATOR     = 

OBJECT_NAME    = SL-14 R/B
OBJECT_ID      = 1987-024B
CENTER_NAME    = EARTH
REF_FRAME      = TEME
TIME_SYSTEM    = UTC
MEAN_ELEMENT_THEORY = SGP/SGP4

EPOCH          = 2025-12-27T22:19:02.289504
MEAN_MOTION    = 14.86041090
ECCENTRICITY   = .00193162
INCLINATION    = 82.5280
RA_OF_ASC_NODE = 160.1846
ARG_OF_PERICENTER = 135.1814
MEAN_ANOMALY   = 225.0967

EPHEMERIS_TYPE = 0
CLASSIFICATION_TYPE = U
NORAD_CAT_ID   = 17567
ELEMENT_SET_NO = 999
REV_AT_EPOCH   = 7747
BSTAR          = .86355707E-4
MEAN_MOTION_DOT = .782E-5
MEAN_MOTION_DDOT = 0

CCSDS_OMM_VERS = 2.0
CREATION_DATE  = 
ORIGINATOR     = 

OBJECT_NAME    = COSMOS 1833
OBJECT_ID      = 1987-027A
CENTER_NAME    = EARTH
REF_FRAME      = TEME
TIME_SYSTEM    = UTC
MEAN_ELEMENT_THEORY = SGP/SGP4

EPOCH          = 2025-12-27T17:24:40.179456
MEAN_MOTION    = 14.13029936
ECCENTRICITY   = .00232176
INCLINATION    = 70.9168
RA_OF_ASC_NODE = 117.2756
ARG_OF_PERICENTER = 310.8388
MEAN_ANOMALY   = 49.0719

EPHEMERIS_TYPE = 0
CLASSIFICATION_TYPE = U
NORAD_CAT_ID   = 17589
ELEMENT_SET_NO = 999
REV_AT_EPOCH   = 15
BSTAR          = .19295022E-3
MEAN_MOTION_DOT = .313E-5
MEAN_MOTION_DDOT = 0

CCSDS_OMM_VERS = 2.0
CREATION_DATE  = 
ORIGINATOR     = 

OBJECT_NAME    = SL-16 R/B
OBJECT_ID      = 1987-027B
CENTER_NAME    = EARTH
REF_FRAME      = TEME
TIME_SYSTEM    = UTC
MEAN_ELEMENT_THEORY = SGP/SGP4

EPOCH          = 2025-12-27T15:00:27.061344
MEAN_MOTION    = 14.17156409
ECCENTRICITY   = .00071723
INCLINATION    = 71.0037
RA_OF_ASC_NODE = 68.3524
ARG_OF_PERICENTER = 244.1688
MEAN_ANOMALY   = 115.8696

EPHEMERIS_TYPE = 0
CLASSIFICATION_TYPE = U
NORAD_CAT_ID   = 17590
ELEMENT_SET_NO = 999
REV_AT_EPOCH   = 513
BSTAR          = -.58037845E-4
MEAN_MOTION_DOT = -.165E-5
MEAN_MOTION_DDOT = 0

CCSDS_OMM_VERS = 2.0
CREATION_DATE  = 
ORIGINATOR     = 

OBJECT_NAME    = SL-14 R/B
OBJECT_ID      = 1987-038B
CENTER_NAME    = EARTH
REF_FRAME      = TEME
TIME_SYSTEM    = UTC
MEAN_ELEMENT_THEORY = SGP/SGP4

EPOCH          = 2025-12-27T18:04:35.895936
MEAN_MOTION    = 14.85275798
ECCENTRICITY   = .00204409
INCLINATION    = 82.5009
RA_OF_ASC_NODE = 4.5583
ARG_OF_PERICENTER = 45.9062
MEAN_ANOMALY   = 314.3832

EPHEMERIS_TYPE = 0
CLASSIFICATION_TYPE = U
NORAD_CAT_ID   = 17912
ELEMENT_SET_NO = 999
REV_AT_EPOCH   = 6855
BSTAR          = .7158355E-4
MEAN_MOTION_DOT = .641E-5
MEAN_MOTION_DDOT = 0

CCSDS_OMM_VERS = 2.0
CREATION_DATE  = 
ORIGINATOR     = 

OBJECT_NAME    = COSMOS 1844
OBJECT_ID      = 1987-041A
CENTER_NAME    = EARTH
REF_FRAME      = TEME
TIME_SYSTEM    = UTC
MEAN_ELEMENT_THEORY = SGP/SGP4

EPOCH          = 2025-12-27T21:46:33.961728
MEAN_MOTION    = 14.14533683
ECCENTRICITY   = .0029377
INCLINATION    = 70.8970
RA_OF_ASC_NODE = 185.5798
ARG_OF_PERICENTER = 133.1057
MEAN_ANOMALY   = 227.2530

EPHEMERIS_TYPE = 0
CLASSIFICATION_TYPE = U
NORAD_CAT_ID   = 17973
ELEMENT_SET_NO = 999
REV_AT_EPOCH   = 99343
BSTAR          = .21102375E-3
MEAN_MOTION_DOT = .358E-5
MEAN_MOTION_DDOT = 0

CCSDS_OMM_VERS = 2.0
CREATION_DATE  = 
ORIGINATOR     = 

OBJECT_NAME    = SL-14 R/B
OBJECT_ID      = 1987-055B
CENTER_NAME    = EARTH
REF_FRAME      = TEME
TIME_SYSTEM    = UTC
MEAN_ELEMENT_THEORY = SGP/SGP4

EPOCH          = 2025-12-27T21:03:06.168672
MEAN_MOTION    = 14.85536984
ECCENTRICITY   = .00192444
INCLINATION    = 82.4989
RA_OF_ASC_NODE = 56.7218
ARG_OF_PERICENTER = 249.4819
MEAN_ANOMALY   = 110.4332

EPHEMERIS_TYPE = 0
CLASSIFICATION_TYPE = U
NORAD_CAT_ID   = 18153
ELEMENT_SET_NO = 999
REV_AT_EPOCH   = 5927
BSTAR          = .67105757E-4
MEAN_MOTION_DOT = .605E-5
MEAN_MOTION_DDOT = 0

CCSDS_OMM_VERS = 2.0
CREATION_DATE  = 
ORIGINATOR     = 

OBJECT_NAME    = COSMOS 1867
OBJECT_ID      = 1987-060A
CENTER_NAME    = EARTH
REF_FRAME      = TEME
TIME_SYSTEM    = UTC
MEAN_ELEMENT_THEORY = SGP/SGP4

EPOCH          = 2025-12-27T18:18:42.189120
MEAN_MOTION    = 14.31488655
ECCENTRICITY   = .00136871
INCLINATION    = 65.0093
RA_OF_ASC_NODE = 148.1311
ARG_OF_PERICENTER = 272.5720
MEAN_ANOMALY   = 87.3797

EPHEMERIS_TYPE = 0
CLASSIFICATION_TYPE = U
NORAD_CAT_ID   = 18187
ELEMENT_SET_NO = 999
REV_AT_EPOCH   = 964
BSTAR          = .49947452E-4
MEAN_MOTION_DOT = .33E-6
MEAN_MOTION_DDOT = 0

CCSDS_OMM_VERS = 2.0
CREATION_DATE  = 
ORIGINATOR     = 

OBJECT_NAME    = SL-14 R/B
OBJECT_ID      = 1988-001B
CENTER_NAME    = EARTH
REF_FRAME      = TEME
TIME_SYSTEM    = UTC
MEAN_ELEMENT_THEORY = SGP/SGP4

EPOCH          = 2025-12-27T20:49:35.309856
MEAN_MOTION    = 14.85439842
ECCENTRICITY   = .0019495
INCLINATION    = 82.5132
RA_OF_ASC_NODE = 262.9195
ARG_OF_PERICENTER = 113.7642
MEAN_ANOMALY   = 246.5622

EPHEMERIS_TYPE = 0
CLASSIFICATION_TYPE = U
NORAD_CAT_ID   = 18749
ELEMENT_SET_NO = 999
REV_AT_EPOCH   = 3136
BSTAR          = .68190586E-4
MEAN_MOTION_DOT = .614E-5
MEAN_MOTION_DDOT = 0

